{
  "type": "FeatureCollection",
  "features": [
    {
      "type": "Feature",
      "properties": {
        "norad_id": 31072,
        "name": "FENGYUN 1C DEB",
        "group": "fengyun-1c-debris",
        "lat": 48.23044261249215,
        "lon": -9.268511448570326,
        "alt_km": 663.681214874834,
        "timestamp": "2025-12-21T09:37:22.935063+00:00",
        "meta_object_name": "FENGYUN 1C DEB",
        "meta_object_id": "1999-025BFS",
        "meta_epoch": "2025-12-16T18:13:11.315136",
        "meta_mean_motion": 14.25497382,
        "meta_eccentricity": 0.02103656,
        "meta_inclination": 99.3328,
        "meta_ra_of_asc_node": 356.4011,
        "meta_arg_of_pericenter": 86.3068,
        "meta_mean_anomaly": 276.2137,
        "meta_ephemeris_type": 0,
        "meta_classification_type": "U",
        "meta_norad_cat_id": 31072,
        "meta_element_set_no": 999,
        "meta_rev_at_epoch": 96700,
        "meta_bstar": 0.00047345897,
        "meta_mean_motion_dot": 1.358e-05,
        "meta_mean_motion_ddot": 0,
        "tle_line1": "1 31072U 99025BFS 25350.75915874  .00001358  00000+0  47346-3 0  9992",
        "tle_line2": "2 31072  99.3328 356.4011 0210365  86.3068 276.2137 14.25497382967002"
      },
      "geometry": {
        "type": "Point",
        "coordinates": [
          -9.268511448570326,
          48.23044261249215
        ]
      }
    },
    {
      "type": "Feature",
      "properties": {
        "norad_id": 31073,
        "name": "FENGYUN 1C DEB",
        "group": "fengyun-1c-debris",
        "lat": 23.40586501454793,
        "lon": -158.50645943758283,
        "alt_km": 825.8838596257401,
        "timestamp": "2025-12-21T09:37:22.935074+00:00",
        "meta_object_name": "FENGYUN 1C DEB",
        "meta_object_id": "1999-025BFT",
        "meta_epoch": "2025-12-18T09:02:29.976576",
        "meta_mean_motion": 14.248255,
        "meta_eccentricity": 0.00450963,
        "meta_inclination": 99.2192,
        "meta_ra_of_asc_node": 202.3511,
        "meta_arg_of_pericenter": 269.7915,
        "meta_mean_anomaly": 89.8095,
        "meta_ephemeris_type": 0,
        "meta_classification_type": "U",
        "meta_norad_cat_id": 31073,
        "meta_element_set_no": 999,
        "meta_rev_at_epoch": 97163,
        "meta_bstar": 0.0009478953,
        "meta_mean_motion_dot": 2.186e-05,
        "meta_mean_motion_ddot": 0,
        "tle_line1": "1 31073U 99025BFT 25352.37673584  .00002186  00000+0  94790-3 0  9997",
        "tle_line2": "2 31073  99.2192 202.3511 0045096 269.7915  89.8095 14.24825500971631"
      },
      "geometry": {
        "type": "Point",
        "coordinates": [
          -158.50645943758283,
          23.40586501454793
        ]
      }
    },
    {
      "type": "Feature",
      "properties": {
        "norad_id": 31074,
        "name": "FENGYUN 1C DEB",
        "group": "fengyun-1c-debris",
        "lat": -14.267148596894206,
        "lon": -87.27726083394059,
        "alt_km": 864.2423974492767,
        "timestamp": "2025-12-21T09:37:22.935084+00:00",
        "meta_object_name": "FENGYUN 1C DEB",
        "meta_object_id": "1999-025BFU",
        "meta_epoch": "2025-12-18T17:10:14.920608",
        "meta_mean_motion": 14.14282346,
        "meta_eccentricity": 0.00866655,
        "meta_inclination": 98.9597,
        "meta_ra_of_asc_node": 267.7307,
        "meta_arg_of_pericenter": 248.9411,
        "meta_mean_anomaly": 110.2477,
        "meta_ephemeris_type": 0,
        "meta_classification_type": "U",
        "meta_norad_cat_id": 31074,
        "meta_element_set_no": 999,
        "meta_rev_at_epoch": 95664,
        "meta_bstar": 0.001489856,
        "meta_mean_motion_dot": 2.905e-05,
        "meta_mean_motion_ddot": 0,
        "tle_line1": "1 31074U 99025BFU 25352.71545047  .00002905  00000+0  14899-2 0  9998",
        "tle_line2": "2 31074  98.9597 267.7307 0086665 248.9411 110.2477 14.14282346956643"
      },
      "geometry": {
        "type": "Point",
        "coordinates": [
          -87.27726083394059,
          -14.267148596894206
        ]
      }
    },
    {
      "type": "Feature",
      "properties": {
        "norad_id": 31078,
        "name": "FENGYUN 1C DEB",
        "group": "fengyun-1c-debris",
        "lat": -20.763916054415382,
        "lon": -127.50593744595992,
        "alt_km": 803.4404947747607,
        "timestamp": "2025-12-21T09:37:22.935094+00:00",
        "meta_object_name": "FENGYUN 1C DEB",
        "meta_object_id": "1999-025BFY",
        "meta_epoch": "2025-12-15T10:54:33.357600",
        "meta_mean_motion": 14.22084734,
        "meta_eccentricity": 0.0117132,
        "meta_inclination": 98.8675,
        "meta_ra_of_asc_node": 49.9086,
        "meta_arg_of_pericenter": 141.0899,
        "meta_mean_anomaly": 232.8229,
        "meta_ephemeris_type": 0,
        "meta_classification_type": "U",
        "meta_norad_cat_id": 31078,
        "meta_element_set_no": 999,
        "meta_rev_at_epoch": 96931,
        "meta_bstar": 0.00048192939,
        "meta_mean_motion_dot": 1.1e-05,
        "meta_mean_motion_ddot": 0,
        "tle_line1": "1 31078U 99025BFY 25349.45455275  .00001100  00000+0  48193-3 0  9993",
        "tle_line2": "2 31078  98.8675  49.9086 0117132 141.0899 232.8229 14.22084734969318"
      },
      "geometry": {
        "type": "Point",
        "coordinates": [
          -127.50593744595992,
          -20.763916054415382
        ]
      }
    },
    {
      "type": "Feature",
      "properties": {
        "norad_id": 31081,
        "name": "FENGYUN 1C DEB",
        "group": "fengyun-1c-debris",
        "lat": -22.409366678926823,
        "lon": -172.08359828178757,
        "alt_km": 842.8649042855177,
        "timestamp": "2025-12-21T09:37:22.935104+00:00",
        "meta_object_name": "FENGYUN 1C DEB",
        "meta_object_id": "1999-025BGB",
        "meta_epoch": "2025-12-21T00:15:34.548192",
        "meta_mean_motion": 14.06298807,
        "meta_eccentricity": 0.0047686,
        "meta_inclination": 98.7696,
        "meta_ra_of_asc_node": 11.188,
        "meta_arg_of_pericenter": 207.4444,
        "meta_mean_anomaly": 181.096,
        "meta_ephemeris_type": 0,
        "meta_classification_type": "U",
        "meta_norad_cat_id": 31081,
        "meta_element_set_no": 999,
        "meta_rev_at_epoch": 96577,
        "meta_bstar": -3.8281e-05,
        "meta_mean_motion_dot": -1.06e-06,
        "meta_mean_motion_ddot": 0,
        "tle_line1": "1 31081U 99025BGB 25355.01081653 -.00000106  00000+0 -38281-4 0  9996",
        "tle_line2": "2 31081  98.7696  11.1880 0047686 207.4444 181.0960 14.06298807965779"
      },
      "geometry": {
        "type": "Point",
        "coordinates": [
          -172.08359828178757,
          -22.409366678926823
        ]
      }
    },
    {
      "type": "Feature",
      "properties": {
        "norad_id": 31083,
        "name": "FENGYUN 1C DEB",
        "group": "fengyun-1c-debris",
        "lat": -11.082523031407554,
        "lon": -68.46048469974164,
        "alt_km": 689.2048146038496,
        "timestamp": "2025-12-21T09:37:22.935115+00:00",
        "meta_object_name": "FENGYUN 1C DEB",
        "meta_object_id": "1999-025BGD",
        "meta_epoch": "2025-12-19T14:38:04.432992",
        "meta_mean_motion": 14.6219438,
        "meta_eccentricity": 0.00318314,
        "meta_inclination": 98.6473,
        "meta_ra_of_asc_node": 111.3739,
        "meta_arg_of_pericenter": 284.0214,
        "meta_mean_anomaly": 204.2454,
        "meta_ephemeris_type": 0,
        "meta_classification_type": "U",
        "meta_norad_cat_id": 31083,
        "meta_element_set_no": 999,
        "meta_rev_at_epoch": 97810,
        "meta_bstar": 0.0016748053,
        "meta_mean_motion_dot": 8.449e-05,
        "meta_mean_motion_ddot": 0,
        "tle_line1": "1 31083U 99025BGD 25353.60977353  .00008449  00000+0  16748-2 0  9990",
        "tle_line2": "2 31083  98.6473 111.3739 0031831 284.0214 204.2454 14.62194380978100"
      },
      "geometry": {
        "type": "Point",
        "coordinates": [
          -68.46048469974164,
          -11.082523031407554
        ]
      }
    },
    {
      "type": "Feature",
      "properties": {
        "norad_id": 31085,
        "name": "FENGYUN 1C DEB",
        "group": "fengyun-1c-debris",
        "lat": 44.361313384895375,
        "lon": -172.43011345227683,
        "alt_km": 748.2987671047404,
        "timestamp": "2025-12-21T09:37:22.935125+00:00",
        "meta_object_name": "FENGYUN 1C DEB",
        "meta_object_id": "1999-025BGF",
        "meta_epoch": "2025-12-19T19:05:03.155424",
        "meta_mean_motion": 14.30313087,
        "meta_eccentricity": 0.00869993,
        "meta_inclination": 98.9838,
        "meta_ra_of_asc_node": 194.8123,
        "meta_arg_of_pericenter": 357.6075,
        "meta_mean_anomaly": 63.0239,
        "meta_ephemeris_type": 0,
        "meta_classification_type": "U",
        "meta_norad_cat_id": 31085,
        "meta_element_set_no": 999,
        "meta_rev_at_epoch": 97817,
        "meta_bstar": 7.9617114e-05,
        "meta_mean_motion_dot": 1.68e-06,
        "meta_mean_motion_ddot": 0,
        "tle_line1": "1 31085U 99025BGF 25353.79517541  .00000168  00000+0  79617-4 0  9997",
        "tle_line2": "2 31085  98.9838 194.8123 0086999 357.6075  63.0239 14.30313087978171"
      },
      "geometry": {
        "type": "Point",
        "coordinates": [
          -172.43011345227683,
          44.361313384895375
        ]
      }
    }
  ]
}